{
  "norad_id": 63324,
  "name": "STARLINK-33619",
  "history": [
    {
      "epoch": "2026-03-28T20:31:07.973760Z",
      "apogee_km": 483.9355953213708,
      "perigee_km": 481.9678350778522,
      "latitude_deg": 4.29472248082525e-05,
      "longitude_deg": 148.11560536205903,
      "height_km": 482.7466576893243,
      "semi_major_axis_km": 6861.088715199611,
      "eccentricity": 0.0001434,
      "inclination_deg": 43.0038,
      "raan_deg": 282.1682,
      "arg_perigee_deg": 268.9634,
      "mean_anomaly_deg": 91.1054,
      "mean_motion_rev_day": 15.27612522
    },
    {
      "epoch": "2026-03-28T20:31:07.974624Z",
      "apogee_km": 483.93566393225774,
      "perigee_km": 481.96776646696526,
      "latitude_deg": 4.3733330007805584e-05,
      "longitude_deg": 148.11560259042815,
      "height_km": 482.7466589305246,
      "semi_major_axis_km": 6861.088715199611,
      "eccentricity": 0.00014341,
      "inclination_deg": 43.0038,
      "raan_deg": 282.1682,
      "arg_perigee_deg": 268.9634,
      "mean_anomaly_deg": 91.1054,
      "mean_motion_rev_day": 15.27612522
    },
    {
      "epoch": "2026-03-29T21:37:38.853696Z",
      "apogee_km": 484.18516554744747,
      "perigee_km": 481.8811846026565,
      "latitude_deg": -1.9066529606306547e-05,
      "longitude_deg": 124.54870059087845,
      "height_km": 482.57522810270524,
      "semi_major_axis_km": 6861.170175075052,
      "eccentricity": 0.0001679,
      "inclination_deg": 43.0042,
      "raan_deg": 276.2612,
      "arg_perigee_deg": 281.7884,
      "mean_anomaly_deg": 78.2779,
      "mean_motion_rev_day": 15.27585317
    },
    {
      "epoch": "2026-03-30T05:28:26.175072Z",
      "apogee_km": 483.6843060733845,
      "perigee_km": 482.4177307651844,
      "latitude_deg": -5.9520560408345866e-06,
      "longitude_deg": 4.680499079789331,
      "height_km": 482.67021304233873,
      "semi_major_axis_km": 6861.188018419284,
      "eccentricity": 9.23e-05,
      "inclination_deg": 42.9993,
      "raan_deg": 274.4124,
      "arg_perigee_deg": 284.3555,
      "mean_anomaly_deg": 75.7194,
      "mean_motion_rev_day": 15.27579358
    },
    {
      "epoch": "2026-03-30T13:19:12.885600Z",
      "apogee_km": 484.324644964222,
      "perigee_km": 481.71027066961506,
      "latitude_deg": 3.106070866957499e-05,
      "longitude_deg": -115.18242471221646,
      "height_km": 482.65491872046124,
      "semi_major_axis_km": 6861.154457816918,
      "eccentricity": 0.00019052,
      "inclination_deg": 43.0025,
      "raan_deg": 272.5663,
      "arg_perigee_deg": 276.145,
      "mean_anomaly_deg": 83.9185,
      "mean_motion_rev_day": 15.27590566
    },
    {
      "epoch": "2026-03-31T12:51:33.736896Z",
      "apogee_km": 483.97494931919937,
      "perigee_km": 482.00594296470535,
      "latitude_deg": -1.5746600985294158e-05,
      "longitude_deg": -114.77547128616689,
      "height_km": 482.776184262578,
      "semi_major_axis_km": 6861.1274461419525,
      "eccentricity": 0.00014349,
      "inclination_deg": 43.0029,
      "raan_deg": 267.0269,
      "arg_perigee_deg": 269.4945,
      "mean_anomaly_deg": 90.5742,
      "mean_motion_rev_day": 15.27599587
    },
    {
      "epoch": "2026-04-01T12:23:54.489696Z",
      "apogee_km": 484.08107233508144,
      "perigee_km": 482.0172275411787,
      "latitude_deg": -3.594138394803799e-05,
      "longitude_deg": -114.3679779370836,
      "height_km": 483.07748375129387,
      "semi_major_axis_km": 6861.186149938129,
      "eccentricity": 0.0001504,
      "inclination_deg": 43.0021,
      "raan_deg": 261.4876,
      "arg_perigee_deg": 255.9006,
      "mean_anomaly_deg": 104.1678,
      "mean_motion_rev_day": 15.27579982
    },
    {
      "epoch": "2026-04-02T11:56:15.297792Z",
      "apogee_km": 483.94758847511457,
      "perigee_km": 482.0979570235768,
      "latitude_deg": -1.152437168303853e-05,
      "longitude_deg": -113.96076839138534,
      "height_km": 482.800532943462,
      "semi_major_axis_km": 6861.159772749345,
      "eccentricity": 0.00013479,
      "inclination_deg": 43.0017,
      "raan_deg": 255.9482,
      "arg_perigee_deg": 269.9435,
      "mean_anomaly_deg": 90.1262,
      "mean_motion_rev_day": 15.27588791
    },
    {
      "epoch": "2026-04-03T17:45:12.742848Z",
      "apogee_km": 483.9321034259683,
      "perigee_km": 482.01510912257527,
      "latitude_deg": -3.737847551015978e-05,
      "longitude_deg": 150.5570520880442,
      "height_km": 482.77108244196137,
      "semi_major_axis_km": 6861.110606274271,
      "eccentricity": 0.0001397,
      "inclination_deg": 42.9989,
      "raan_deg": 248.9299,
      "arg_perigee_deg": 268.7505,
      "mean_anomaly_deg": 91.3186,
      "mean_motion_rev_day": 15.27605211
    },
    {
      "epoch": "2026-04-04T11:00:56.755008Z",
      "apogee_km": 484.71071065144406,
      "perigee_km": 481.3079937295397,
      "latitude_deg": -9.563284573800076e-06,
      "longitude_deg": -113.14373711566704,
      "height_km": 482.34681304177167,
      "semi_major_axis_km": 6861.146352190492,
      "eccentricity": 0.00024797,
      "inclination_deg": 43.0049,
      "raan_deg": 244.8714,
      "arg_perigee_deg": 285.0091,
      "mean_anomaly_deg": 75.0486,
      "mean_motion_rev_day": 15.27593273
    },
    {
      "epoch": "2026-04-05T10:33:18.211968Z",
      "apogee_km": 484.16671552736534,
      "perigee_km": 482.1496319721873,
      "latitude_deg": -1.8279439734379557e-05,
      "longitude_deg": -112.74107615117089,
      "height_km": 483.1803574403332,
      "semi_major_axis_km": 6861.295173749776,
      "eccentricity": 0.00014699,
      "inclination_deg": 43.0008,
      "raan_deg": 239.3302,
      "arg_perigee_deg": 255.9173,
      "mean_anomaly_deg": 104.1515,
      "mean_motion_rev_day": 15.27543573
    }
  ]
}